{
  "type": "FeatureCollection",
  "features": [
    {
      "type": "Feature",
      "properties": {
        "norad_id": 32393,
        "name": "COSMOS 2434 (721)",
        "group": "gnss",
        "lat": 10.764017046460074,
        "lon": 12.56743146027514,
        "alt_km": 19130.25416289192,
        "timestamp": "2025-12-24T05:51:19.851013+00:00",
        "meta_object_name": "COSMOS 2434 (721)",
        "meta_object_id": "2007-065A",
        "meta_epoch": "2025-12-23T13:22:34.639104",
        "meta_mean_motion": 2.13101491,
        "meta_eccentricity": 0.0004831,
        "meta_inclination": 64.3158,
        "meta_ra_of_asc_node": 197.8381,
        "meta_arg_of_pericenter": 72.36,
        "meta_mean_anomaly": 288.8576,
        "meta_ephemeris_type": 0,
        "meta_classification_type": "U",
        "meta_norad_cat_id": 32393,
        "meta_element_set_no": 999,
        "meta_rev_at_epoch": 14003,
        "meta_bstar": 0,
        "meta_mean_motion_dot": 9.6e-07,
        "meta_mean_motion_ddot": 0,
        "tle_line1": "1 32393U 07065A   25357.55734536  .00000096  00000+0  00000+0 0  9991",
        "tle_line2": "2 32393  64.3158 197.8381 0004831  72.3600 288.8576  2.13101491140034"
      },
      "geometry": {
        "type": "Point",
        "coordinates": [
          12.56743146027514,
          10.764017046460074
        ]
      }
    },
    {
      "type": "Feature",
      "properties": {
        "norad_id": 32395,
        "name": "COSMOS 2436 (723)",
        "group": "gnss",
        "lat": -50.732719490515834,
        "lon": 161.82335844263577,
        "alt_km": 19119.83933181506,
        "timestamp": "2025-12-24T05:51:19.851037+00:00",
        "meta_object_name": "COSMOS 2436 (723)",
        "meta_object_id": "2007-065C",
        "meta_epoch": "2025-12-23T14:51:15.098400",
        "meta_mean_motion": 2.13100222,
        "meta_eccentricity": 0.00178112,
        "meta_inclination": 64.3245,
        "meta_ra_of_asc_node": 197.9064,
        "meta_arg_of_pericenter": 10.214,
        "meta_mean_anomaly": 171.2752,
        "meta_ephemeris_type": 0,
        "meta_classification_type": "U",
        "meta_norad_cat_id": 32395,
        "meta_element_set_no": 999,
        "meta_rev_at_epoch": 13998,
        "meta_bstar": 0,
        "meta_mean_motion_dot": 9.6e-07,
        "meta_mean_motion_ddot": 0,
        "tle_line1": "1 32395U 07065C   25357.61892475  .00000096  00000+0  00000+0 0  9997",
        "tle_line2": "2 32395  64.3245 197.9064 0017811  10.2140 171.2752  2.13100222139988"
      },
      "geometry": {
        "type": "Point",
        "coordinates": [
          161.82335844263577,
          -50.732719490515834
        ]
      }
    },
    {
      "type": "Feature",
      "properties": {
        "norad_id": 32711,
        "name": "GPS BIIRM-6 (PRN 07)",
        "group": "gnss",
        "lat": 50.71745610481809,
        "lon": -142.24864998143295,
        "alt_km": 20710.484541209444,
        "timestamp": "2025-12-24T05:51:19.851052+00:00",
        "meta_object_name": "GPS BIIRM-6 (PRN 07)",
        "meta_object_id": "2008-012A",
        "meta_epoch": "2025-12-23T15:24:58.037760",
        "meta_mean_motion": 2.00566087,
        "meta_eccentricity": 0.02029294,
        "meta_inclination": 54.4783,
        "meta_ra_of_asc_node": 156.9378,
        "meta_arg_of_pericenter": 245.0761,
        "meta_mean_anomaly": 112.7872,
        "meta_ephemeris_type": 0,
        "meta_classification_type": "U",
        "meta_norad_cat_id": 32711,
        "meta_element_set_no": 999,
        "meta_rev_at_epoch": 13023,
        "meta_bstar": 0,
        "meta_mean_motion_dot": 8.4e-07,
        "meta_mean_motion_ddot": 0,
        "tle_line1": "1 32711U 08012A   25357.64233840  .00000084  00000+0  00000+0 0  9997",
        "tle_line2": "2 32711  54.4783 156.9378 0202929 245.0761 112.7872  2.00566087130236"
      },
      "geometry": {
        "type": "Point",
        "coordinates": [
          -142.24864998143295,
          50.71745610481809
        ]
      }
    },
    {
      "type": "Feature",
      "properties": {
        "norad_id": 35752,
        "name": "GPS BIIRM-8 (PRN 05)",
        "group": "gnss",
        "lat": 56.02705755058611,
        "lon": 128.35117227117783,
        "alt_km": 20040.598306971737,
        "timestamp": "2025-12-24T05:51:19.851064+00:00",
        "meta_object_name": "GPS BIIRM-8 (PRN 05)",
        "meta_object_id": "2009-043A",
        "meta_epoch": "2025-12-22T09:03:38.471040",
        "meta_mean_motion": 2.00565138,
        "meta_eccentricity": 0.00515987,
        "meta_inclination": 56.0976,
        "meta_ra_of_asc_node": 34.4031,
        "meta_arg_of_pericenter": 81.7402,
        "meta_mean_anomaly": 102.7505,
        "meta_ephemeris_type": 0,
        "meta_classification_type": "U",
        "meta_norad_cat_id": 35752,
        "meta_element_set_no": 999,
        "meta_rev_at_epoch": 11981,
        "meta_bstar": 0,
        "meta_mean_motion_dot": -5.3e-07,
        "meta_mean_motion_ddot": 0,
        "tle_line1": "1 35752U 09043A   25356.37752860 -.00000053  00000+0  00000+0 0  9994",
        "tle_line2": "2 35752  56.0976  34.4031 0051598  81.7402 102.7505  2.00565138119812"
      },
      "geometry": {
        "type": "Point",
        "coordinates": [
          128.35117227117783,
          56.02705755058611
        ]
      }
    },
    {
      "type": "Feature",
      "properties": {
        "norad_id": 36111,
        "name": "COSMOS 2456 (730)",
        "group": "gnss",
        "lat": -31.21390374178456,
        "lon": 60.487928568462806,
        "alt_km": 19125.964468804363,
        "timestamp": "2025-12-24T05:51:19.851077+00:00",
        "meta_object_name": "COSMOS 2456 (730)",
        "meta_object_id": "2009-070A",
        "meta_epoch": "2025-12-23T08:10:18.888096",
        "meta_mean_motion": 2.13103774,
        "meta_eccentricity": 0.00036109,
        "meta_inclination": 64.9055,
        "meta_ra_of_asc_node": 76.9756,
        "meta_arg_of_pericenter": 295.3784,
        "meta_mean_anomaly": 56.6202,
        "meta_ephemeris_type": 0,
        "meta_classification_type": "U",
        "meta_norad_cat_id": 36111,
        "meta_element_set_no": 999,
        "meta_rev_at_epoch": 12467,
        "meta_bstar": 0,
        "meta_mean_motion_dot": -1e-08,
        "meta_mean_motion_ddot": 0,
        "tle_line1": "1 36111U 09070A   25357.34049639 -.00000001  00000+0  00000+0 0  9998",
        "tle_line2": "2 36111  64.9055  76.9756 0003610 295.3784  56.6202  2.13103774124670"
      },
      "geometry": {
        "type": "Point",
        "coordinates": [
          60.487928568462806,
          -31.21390374178456
        ]
      }
    },
    {
      "type": "Feature",
      "properties": {
        "norad_id": 36112,
        "name": "COSMOS 2457 (733)",
        "group": "gnss",
        "lat": 64.6002578250088,
        "lon": 176.3869661936145,
        "alt_km": 19118.879810791776,
        "timestamp": "2025-12-24T05:51:19.851088+00:00",
        "meta_object_name": "COSMOS 2457 (733)",
        "meta_object_id": "2009-070B",
        "meta_epoch": "2025-12-23T15:49:23.328192",
        "meta_mean_motion": 2.13101141,
        "meta_eccentricity": 0.00045057,
        "meta_inclination": 64.8913,
        "meta_ra_of_asc_node": 76.812,
        "meta_arg_of_pericenter": 162.7292,
        "meta_mean_anomaly": 202.8862,
        "meta_ephemeris_type": 0,
        "meta_classification_type": "U",
        "meta_norad_cat_id": 36112,
        "meta_element_set_no": 999,
        "meta_rev_at_epoch": 12469,
        "meta_bstar": 0,
        "meta_mean_motion_dot": -1e-08,
        "meta_mean_motion_ddot": 0,
        "tle_line1": "1 36112U 09070B   25357.65929778 -.00000001  00000+0  00000+0 0  9994",
        "tle_line2": "2 36112  64.8913  76.8120 0004505 162.7292 202.8862  2.13101141124697"
      },
      "geometry": {
        "type": "Point",
        "coordinates": [
          176.3869661936145,
          64.6002578250088
        ]
      }
    },
    {
      "type": "Feature",
      "properties": {
        "norad_id": 36402,
        "name": "COSMOS 2460 (732)",
        "group": "gnss",
        "lat": 65.24092064190815,
        "lon": 59.61597500904757,
        "alt_km": 19128.904320128117,
        "timestamp": "2025-12-24T05:51:19.851100+00:00",
        "meta_object_name": "COSMOS 2460 (732)",
        "meta_object_id": "2010-007C",
        "meta_epoch": "2025-12-22T12:30:28.820160",
        "meta_mean_motion": 2.1310637,
        "meta_eccentricity": 0.00025026,
        "meta_inclination": 65.5243,
        "meta_ra_of_asc_node": 320.4432,
        "meta_arg_of_pericenter": 283.7046,
        "meta_mean_anomaly": 288.4145,
        "meta_ephemeris_type": 0,
        "meta_classification_type": "U",
        "meta_norad_cat_id": 36402,
        "meta_element_set_no": 999,
        "meta_rev_at_epoch": 12296,
        "meta_bstar": 0,
        "meta_mean_motion_dot": -3.9e-07,
        "meta_mean_motion_ddot": 0,
        "tle_line1": "1 36402U 10007C   25356.52116690 -.00000039  00000+0  00000+0 0  9995",
        "tle_line2": "2 36402  65.5243 320.4432 0002502 283.7046 288.4145  2.13106370122964"
      },
      "geometry": {
        "type": "Point",
        "coordinates": [
          59.61597500904757,
          65.24092064190815
        ]
      }
    }
  ]
}